[{"OBJECT_NAME":"STARLINK-3387","OBJECT_ID":"2022-005X","EPOCH":"2026-03-09T21:11:38.969952","MEAN_MOTION":15.08831128,"ECCENTRICITY":0.00011414,"INCLINATION":53.2175,"RA_OF_ASC_NODE":298.2642,"ARG_OF_PERICENTER":89.3922,"MEAN_ANOMALY":270.7201,"EPHEMERIS_TYPE":0,"CLASSIFICATION_TYPE":"U","NORAD_CAT_ID":51125,"ELEMENT_SET_NO":999,"REV_AT_EPOCH":22875,"BSTAR":0.00011720925,"MEAN_MOTION_DOT":1.578e-5,"MEAN_MOTION_DDOT":0},{"OBJECT_NAME":"LEMUR-2-NEUROSPICY","OBJECT_ID":"2025-061E","EPOCH":"2026-03-09T21:29:47.005152","MEAN_MOTION":15.13370729,"ECCENTRICITY":0.00155025,"INCLINATION":97.5545,"RA_OF_ASC_NODE":45.3302,"ARG_OF_PERICENTER":239.5457,"MEAN_ANOMALY":120.4243,"EPHEMERIS_TYPE":0,"CLASSIFICATION_TYPE":"U","NORAD_CAT_ID":63355,"ELEMENT_SET_NO":999,"REV_AT_EPOCH":5259,"BSTAR":0.00032487858,"MEAN_MOTION_DOT":5.745e-5,"MEAN_MOTION_DDOT":0}]
